[{"OBJECT_NAME":"STARLINK-36044","OBJECT_ID":"2025-278J","EPOCH":"2026-03-09T10:30:08.487936","MEAN_MOTION":15.27573924,"ECCENTRICITY":0.00023188,"INCLINATION":43.0057,"RA_OF_ASC_NODE":115.5178,"ARG_OF_PERICENTER":266.2452,"MEAN_ANOMALY":93.8135,"EPHEMERIS_TYPE":0,"CLASSIFICATION_TYPE":"U","NORAD_CAT_ID":66799,"ELEMENT_SET_NO":999,"REV_AT_EPOCH":1517,"BSTAR":0.00068344727,"MEAN_MOTION_DOT":0.00018589,"MEAN_MOTION_DDOT":0},{"OBJECT_NAME":"SL-3 R\/B","OBJECT_ID":"1982-027B","EPOCH":"2026-03-09T22:44:40.208640","MEAN_MOTION":15.28335844,"ECCENTRICITY":0.00065199,"INCLINATION":81.188,"RA_OF_ASC_NODE":37.4466,"ARG_OF_PERICENTER":276.581,"MEAN_ANOMALY":83.4683,"EPHEMERIS_TYPE":0,"CLASSIFICATION_TYPE":"U","NORAD_CAT_ID":13121,"ELEMENT_SET_NO":999,"REV_AT_EPOCH":39859,"BSTAR":0.00030526741,"MEAN_MOTION_DOT":8.453e-5,"MEAN_MOTION_DDOT":0}]
